     2.11           N: GPS NAV DATA                         RINEX VERSION / TYPE
teqc  2018Dec12     gpsops              20220324 01:04:06UTCPGM / RUN BY / DATE
Linux 2.6.32-573.12.1.x86_64|x86_64|gcc -static|Linux 64|=+ COMMENT
CHPI                                    MARKER NAME         COMMENT
41609M003                               MARKER NUMBER       COMMENT
4164613.9484 -4162456.9866 -2445028.7316                    COMMENT
                                                            COMMENT
This data is provided as a public service by NASA/JPL.      COMMENT
No warranty is expressed or implied regarding suitability   COMMENT
for use.  For further information, contact:                 COMMENT
Dave Stowers, NASA/JPL m/s 238-600                          COMMENT
4800 Oak Grove Drive, Pasadena CA 91109 USA                 COMMENT
                                                            END OF HEADER
 3 22  3 23  0  0  0.0-1.753000542521D-04-1.637090463191D-11 0.000000000000D+00
    6.900000000000D+01-1.362500000000D+01 4.331966158064D-09 1.137519859159D+00
   -6.742775440216D-07 3.946360317059D-03 8.653849363327D-06 5.153658052444D+03
    2.592000000000D+05-3.911554813385D-08-1.502603746414D+00 1.117587089539D-07
    9.726472961040D-01 2.189687500000D+02 9.446171595763D-01-7.948188216800D-09
    3.853731951976D-10 1.000000000000D+00 2.202000000000D+03 0.000000000000D+00
    2.000000000000D+00 0.000000000000D+00 1.862645149231D-09 6.900000000000D+01
    2.520180000000D+05 4.000000000000D+00
 4 22  3 23  0  0  0.0-1.817094162107D-04 2.728484105319D-12 0.000000000000D+00
    7.500000000000D+01-2.496875000000D+01 4.717339353262D-09-2.265876871370D+00
   -1.359730958939D-06 1.752373762429D-03 6.975606083870D-06 5.153631637573D+03
    2.592000000000D+05-1.117587089539D-08-4.209633202291D-01 4.284083843231D-08
    9.614055430856D-01 2.459062500000D+02-3.013668203469D+00-8.034620388475D-09
   -1.871506527187D-10 1.000000000000D+00 2.202000000000D+03 0.000000000000D+00
    2.000000000000D+00 0.000000000000D+00-4.190951585770D-09 7.500000000000D+01
    2.520180000000D+05 4.000000000000D+00
 5 22  3 23  0  0  0.0-7.562898099422D-05-1.364242052659D-12 0.000000000000D+00
    8.000000000000D+01-6.406250000000D+00 4.574833417318D-09-1.350895573537D+00
   -3.390014171600D-07 5.864876904525D-03 8.331611752510D-06 5.153686754227D+03
    2.592000000000D+05 1.117587089539D-07-1.543493768185D+00 5.774199962616D-08
    9.596580859770D-01 2.187187500000D+02 1.007139936152D+00-8.034620388475D-09
    3.064413359402D-10 1.000000000000D+00 2.202000000000D+03 0.000000000000D+00
    2.000000000000D+00 0.000000000000D+00-1.117587089539D-08 8.000000000000D+01
    2.520180000000D+05 4.000000000000D+00
 6 22  3 23  0  0  0.0 2.404763363302D-04 1.296029950026D-11 0.000000000000D+00
    9.600000000000D+01-8.075000000000D+01 3.913734451321D-09 2.550369731011D+00
   -3.939494490623D-06 2.679878263734D-03 8.739531040192D-06 5.153693321228D+03
    2.592000000000D+05 8.940696716309D-08-2.545605868485D+00 1.676380634308D-08
    9.867581562437D-01 2.245625000000D+02-9.075217600497D-01-7.724250317459D-09
   -4.071598169835D-11 1.000000000000D+00 2.202000000000D+03 0.000000000000D+00
    2.800000000000D+00 0.000000000000D+00 3.725290298462D-09 9.600000000000D+01
    2.520180000000D+05 4.000000000000D+00
 7 22  3 23  0  0  0.0 3.173188306391D-04 1.818989403546D-12 0.000000000000D+00
    1.900000000000D+01 2.490625000000D+01 4.555904057405D-09 1.596988330163D+00
    1.333653926849D-06 1.573705230840D-02 1.159496605396D-05 5.153686285019D+03
    2.592000000000D+05-3.613531589508D-07 5.972477005297D-01-3.911554813385D-08
    9.512292025830D-01 1.542812500000D+02-2.283421251443D+00-8.101766042504D-09
   -4.046597128442D-10 1.000000000000D+00 2.202000000000D+03 0.000000000000D+00
    2.000000000000D+00 0.000000000000D+00-1.117587089539D-08 1.900000000000D+01
    2.520180000000D+05 4.000000000000D+00
 8 22  3 23  0  0  0.0-6.089778617024D-05-1.477928890381D-12 0.000000000000D+00
    9.200000000000D+01-2.946875000000D+01 4.801985736266D-09-1.789157642580D+00
   -1.791864633560D-06 7.413023966365D-03 2.324581146240D-06 5.153735397339D+03
    2.592000000000D+05 5.587935447693D-09 2.665800654463D+00-1.247972249985D-07
    9.643752872673D-01 3.372500000000D+02 1.356615517396D-01-8.494996707854D-09
    3.571577341961D-13 1.000000000000D+00 2.202000000000D+03 0.000000000000D+00
    2.800000000000D+00 0.000000000000D+00 5.122274160385D-09 9.200000000000D+01
    2.520180000000D+05 4.000000000000D+00
 9 22  3 23  0  0  0.0-3.482704050839D-04 2.160049916711D-12 0.000000000000D+00
    6.900000000000D+01-2.293750000000D+01 4.961992401186D-09-1.370819615156D+00
   -1.234933733940D-06 2.162799355574D-03 6.685033440590D-06 5.153592500687D+03
    2.592000000000D+05-3.725290298462D-09-4.741984834245D-01 2.048909664154D-08
    9.543798775470D-01 2.470312500000D+02 1.879327478882D+00-8.228557038144D-09
   -1.692927660089D-10 1.000000000000D+00 2.202000000000D+03 0.000000000000D+00
    2.000000000000D+00 0.000000000000D+00 1.396983861923D-09 6.900000000000D+01
    2.520180000000D+05 4.000000000000D+00
11 22  3 23  0  0  0.0-5.751010030508D-05 7.844391802792D-12 0.000000000000D+00
    2.350000000000D+02-7.200000000000D+01 4.363753196408D-09-1.768876545082D+00
   -3.674998879433D-06 2.847650321200D-04 9.000301361084D-06 5.153790838242D+03
    2.592000000000D+05-1.676380634308D-08-2.494421657920D+00-6.519258022308D-08
    9.624962158079D-01 2.047812500000D+02 2.723573998738D+00-7.996404510916D-09
   -1.392915163365D-11 1.000000000000D+00 2.202000000000D+03 0.000000000000D+00
    1.024000000000D+03 6.300000000000D+01-8.847564458847D-09 4.910000000000D+02
    2.520180000000D+05 4.000000000000D+00
13 22  3 23  0  0  0.0 2.813739702106D-04 6.366462912410D-12 0.000000000000D+00
    7.400000000000D+01-2.696875000000D+01 4.454828418628D-09-2.297529478331D+00
   -1.337379217148D-06 5.831337650307D-03 7.245689630508D-06 5.153667848587D+03
    2.592000000000D+05 2.793967723846D-08-3.208122908453D-01-4.842877388000D-08
    9.688962439490D-01 2.446250000000D+02 9.426877256991D-01-7.885685613315D-09
   -2.478674675321D-10 1.000000000000D+00 2.202000000000D+03 0.000000000000D+00
    2.000000000000D+00 0.000000000000D+00-1.117587089539D-08 7.400000000000D+01
    2.542680000000D+05 4.000000000000D+00
14 22  3 23  0  0  0.0-9.635835886002D-05-3.410605131648D-12 0.000000000000D+00
    1.140000000000D+02 1.050625000000D+02 4.751269338011D-09 1.016108974252D+00
    5.444511771202D-06 1.580011798069D-03 6.068497896194D-06 5.153656534195D+03
    2.592000000000D+05 0.000000000000D+00 1.678454911321D+00 7.450580596924D-09
    9.530461058757D-01 2.586562500000D+02 3.029832195987D+00-8.302488689122D-09
    2.210806374674D-10 1.000000000000D+00 2.202000000000D+03 0.000000000000D+00
    2.000000000000D+00 0.000000000000D+00-7.450580596924D-09 6.260000000000D+02
    2.520180000000D+05 4.000000000000D+00
17 22  3 23  0  0  0.0 5.907369777560D-04 5.115907697473D-12 0.000000000000D+00
    5.100000000000D+01-2.853125000000D+01 4.369110562421D-09-1.866579616590D+00
   -1.154839992523D-06 1.350056566298D-02 3.185123205185D-06 5.153777124405D+03
    2.592000000000D+05 1.266598701477D-07 2.748223163349D+00 3.427267074585D-07
    9.795865295166D-01 3.265000000000D+02-1.492376740670D+00-8.079979420718D-09
   -1.135761594744D-10 1.000000000000D+00 2.202000000000D+03 0.000000000000D+00
    2.000000000000D+00 0.000000000000D+00-1.117587089539D-08 5.100000000000D+01
    2.525880000000D+05 4.000000000000D+00
19 22  3 23  0  0  0.0 1.345421187580D-04 5.002220859751D-12 0.000000000000D+00
    5.700000000000D+01-3.578125000000D+01 4.478043671351D-09 5.585766680117D-01
   -1.983717083931D-06 9.062331286259D-03 3.762543201447D-06 5.153689008713D+03
    2.592000000000D+05-3.911554813385D-08 2.793055987799D+00-7.450580596924D-08
    9.783925747779D-01 3.187500000000D+02 2.021790584425D+00-8.352847929644D-09
   -1.378628853997D-10 1.000000000000D+00 2.202000000000D+03 0.000000000000D+00
    2.000000000000D+00 0.000000000000D+00-1.583248376846D-08 5.700000000000D+01
    2.551020000000D+05 4.000000000000D+00
20 22  3 23  0  0  0.0 5.161832086742D-04-1.136868377216D-13 0.000000000000D+00
    2.400000000000D+01-1.178125000000D+01 4.875917387245D-09-3.036275160773D+00
   -7.431954145432D-07 5.032161599956D-03 8.475035429001D-06 5.153776828766D+03
    2.592000000000D+05-7.078051567078D-08-1.658216740229D+00-2.793967723846D-08
    9.419326961233D-01 2.053437500000D+02-3.125218315396D+00-8.132481607645D-09
    2.971552348511D-10 1.000000000000D+00 2.202000000000D+03 0.000000000000D+00
    2.000000000000D+00 0.000000000000D+00-8.381903171539D-09 2.400000000000D+01
    2.520180000000D+05 4.000000000000D+00
27 22  3 23  0  0  0.0 1.625083386898D-04 1.170974428533D-11 0.000000000000D+00
    3.100000000000D+01-3.603125000000D+01 4.561618581152D-09-1.798169326204D+00
   -1.985579729080D-06 1.043609308545D-02 2.218410372734D-06 5.153651504517D+03
    2.592000000000D+05 8.754432201385D-08 2.685518241768D+00-9.126961231232D-08
    9.731040586271D-01 3.400000000000D+02 6.554320077511D-01-8.308917528338D-09
    8.571785620706D-12 1.000000000000D+00 2.202000000000D+03 0.000000000000D+00
    2.000000000000D+00 0.000000000000D+00 1.396983861923D-09 3.100000000000D+01
    2.520180000000D+05 4.000000000000D+00
28 22  3 22 23 59 28.0 3.747693262994D-04 3.410605131648D-13-8.326672684689D-17
    7.600000000000D+01 9.825000000000D+01 4.459471469172D-09-1.359199476914D+00
    5.403533577919D-06 1.670765981544D-02 6.355345249176D-06 5.153693405151D+03
    2.591680000000D+05-3.483146429062D-07 1.732400278820D+00 2.160668373108D-07
    9.687089421586D-01 2.677500000000D+02-1.283097839135D+00-8.296059849907D-09
    2.782258749387D-10 1.000000000000D+00 2.202000000000D+03 0.000000000000D+00
    1.280000000000D+02 6.300000000000D+01-1.117587089539D-08 7.600000000000D+01
    2.520180000000D+05 4.000000000000D+00
